{
  "type": "FeatureCollection",
  "features": [
    {
      "type": "Feature",
      "properties": {
        "norad_id": 41019,
        "name": "GPS BIIF-11 (PRN 10)",
        "group": "gnss",
        "lat": 56.34546635171915,
        "lon": 117.28575871741266,
        "alt_km": 20417.703447832537,
        "timestamp": "2025-12-04T10:51:50.348615+00:00",
        "meta_object_name": "GPS BIIF-11 (PRN 10)",
        "meta_object_id": "2015-062A",
        "meta_epoch": "2025-12-02T20:07:20.287200",
        "meta_mean_motion": 2.00566746,
        "meta_eccentricity": 0.01105435,
        "meta_inclination": 56.8251,
        "meta_ra_of_asc_node": 38.3854,
        "meta_arg_of_pericenter": 229.6764,
        "meta_mean_anomaly": 129.4032,
        "meta_ephemeris_type": 0,
        "meta_classification_type": "U",
        "meta_norad_cat_id": 41019,
        "meta_element_set_no": 999,
        "meta_rev_at_epoch": 7389,
        "meta_bstar": 0,
        "meta_mean_motion_dot": -6.5e-07,
        "meta_mean_motion_ddot": 0,
        "tle_line1": "1 41019U 15062A   25336.83842925 -.00000065  00000+0  00000+0 0  9999",
        "tle_line2": "2 41019  56.8251  38.3854 0110543 229.6764 129.4032  2.00566746 73899"
      },
      "geometry": {
        "type": "Point",
        "coordinates": [
          117.28575871741266,
          56.34546635171915
        ]
      }
    },
    {
      "type": "Feature",
      "properties": {
        "norad_id": 41028,
        "name": "GSAT-15 (GAGAN/PRN 139)",
        "group": "gnss",
        "lat": -0.009269688915956312,
        "lon": -30.001154686183533,
        "alt_km": 35787.448105150725,
        "timestamp": "2025-12-04T10:51:50.348627+00:00",
        "meta_object_name": "GSAT-15 (GAGAN/PRN 139)",
        "meta_object_id": "2015-065A",
        "meta_epoch": "2025-12-04T00:28:24.024000",
        "meta_mean_motion": 1.00271818,
        "meta_eccentricity": 0.0003006,
        "meta_inclination": 0.033,
        "meta_ra_of_asc_node": 91.2388,
        "meta_arg_of_pericenter": 142.5609,
        "meta_mean_anomaly": 299.8998,
        "meta_ephemeris_type": 0,
        "meta_classification_type": "U",
        "meta_norad_cat_id": 41028,
        "meta_element_set_no": 999,
        "meta_rev_at_epoch": 3684,
        "meta_bstar": 0,
        "meta_mean_motion_dot": -2.41e-06,
        "meta_mean_motion_ddot": 0,
        "tle_line1": "1 41028U 15065A   25338.01972250 -.00000241  00000+0  00000+0 0  9995",
        "tle_line2": "2 41028   0.0330  91.2388 0003006 142.5609 299.8998  1.00271818 36843"
      },
      "geometry": {
        "type": "Point",
        "coordinates": [
          -30.001154686183533,
          -0.009269688915956312
        ]
      }
    },
    {
      "type": "Feature",
      "properties": {
        "norad_id": 41174,
        "name": "GSAT0209 (GALILEO 12)",
        "group": "gnss",
        "lat": 54.885029642235175,
        "lon": -149.29056896686018,
        "alt_km": 23217.10674009207,
        "timestamp": "2025-12-04T10:51:50.348681+00:00",
        "meta_object_name": "GSAT0209 (GALILEO 12)",
        "meta_object_id": "2015-079A",
        "meta_epoch": "2025-12-01T22:43:10.411392",
        "meta_mean_motion": 1.70474306,
        "meta_eccentricity": 0.0002352,
        "meta_inclination": 55.7062,
        "meta_ra_of_asc_node": 106.6773,
        "meta_arg_of_pericenter": 357.4206,
        "meta_mean_anomaly": 2.5431,
        "meta_ephemeris_type": 0,
        "meta_classification_type": "U",
        "meta_norad_cat_id": 41174,
        "meta_element_set_no": 999,
        "meta_rev_at_epoch": 6141,
        "meta_bstar": 0,
        "meta_mean_motion_dot": 3.5e-07,
        "meta_mean_motion_ddot": 0,
        "tle_line1": "1 41174U 15079A   25335.94664828  .00000035  00000+0  00000+0 0  9990",
        "tle_line2": "2 41174  55.7062 106.6773 0002352 357.4206   2.5431  1.70474306 61412"
      },
      "geometry": {
        "type": "Point",
        "coordinates": [
          -149.29056896686018,
          54.885029642235175
        ]
      }
    },
    {
      "type": "Feature",
      "properties": {
        "norad_id": 41175,
        "name": "GSAT0208 (GALILEO 11)",
        "group": "gnss",
        "lat": -29.896365297484003,
        "lon": 83.50068067729492,
        "alt_km": 23222.107740374777,
        "timestamp": "2025-12-04T10:51:50.348695+00:00",
        "meta_object_name": "GSAT0208 (GALILEO 11)",
        "meta_object_id": "2015-079B",
        "meta_epoch": "2025-12-03T08:09:32.138784",
        "meta_mean_motion": 1.70474152,
        "meta_eccentricity": 0.00019072,
        "meta_inclination": 55.7055,
        "meta_ra_of_asc_node": 106.6362,
        "meta_arg_of_pericenter": 9.6551,
        "meta_mean_anomaly": 350.3047,
        "meta_ephemeris_type": 0,
        "meta_classification_type": "U",
        "meta_norad_cat_id": 41175,
        "meta_element_set_no": 999,
        "meta_rev_at_epoch": 6185,
        "meta_bstar": 0,
        "meta_mean_motion_dot": 2.2e-07,
        "meta_mean_motion_ddot": 0,
        "tle_line1": "1 41175U 15079B   25337.33995531  .00000022  00000+0  00000+0 0  9990",
        "tle_line2": "2 41175  55.7055 106.6362 0001907   9.6551 350.3047  1.70474152 61857"
      },
      "geometry": {
        "type": "Point",
        "coordinates": [
          83.50068067729492,
          -29.896365297484003
        ]
      }
    },
    {
      "type": "Feature",
      "properties": {
        "norad_id": 41241,
        "name": "IRNSS-1E",
        "group": "gnss",
        "lat": -31.428710999813376,
        "lon": -8.693072626833972,
        "alt_km": 35802.98366373371,
        "timestamp": "2025-12-04T10:51:50.348709+00:00",
        "meta_object_name": "IRNSS-1E",
        "meta_object_id": "2016-003A",
        "meta_epoch": "2025-12-03T17:21:12.375360",
        "meta_mean_motion": 1.00277647,
        "meta_eccentricity": 0.00219003,
        "meta_inclination": 32.8059,
        "meta_ra_of_asc_node": 62.5847,
        "meta_arg_of_pericenter": 186.7982,
        "meta_mean_anomaly": 195.4387,
        "meta_ephemeris_type": 0,
        "meta_classification_type": "U",
        "meta_norad_cat_id": 41241,
        "meta_element_set_no": 999,
        "meta_rev_at_epoch": 3612,
        "meta_bstar": 0,
        "meta_mean_motion_dot": -3.08e-06,
        "meta_mean_motion_ddot": 0,
        "tle_line1": "1 41241U 16003A   25337.72305990 -.00000308  00000+0  00000+0 0  9997",
        "tle_line2": "2 41241  32.8059  62.5847 0021900 186.7982 195.4387  1.00277647 36129"
      },
      "geometry": {
        "type": "Point",
        "coordinates": [
          -8.693072626833972,
          -31.428710999813376
        ]
      }
    },
    {
      "type": "Feature",
      "properties": {
        "norad_id": 41328,
        "name": "GPS BIIF-12 (PRN 32)",
        "group": "gnss",
        "lat": 21.032716141851385,
        "lon": 112.54941086346412,
        "alt_km": 20372.149706901364,
        "timestamp": "2025-12-04T10:51:50.348721+00:00",
        "meta_object_name": "GPS BIIF-12 (PRN 32)",
        "meta_object_id": "2016-007A",
        "meta_epoch": "2025-12-02T10:07:51.557664",
        "meta_mean_motion": 2.00561137,
        "meta_eccentricity": 0.0091655,
        "meta_inclination": 55.4002,
        "meta_ra_of_asc_node": 97.2666,
        "meta_arg_of_pericenter": 243.3201,
        "meta_mean_anomaly": 115.7158,
        "meta_ephemeris_type": 0,
        "meta_classification_type": "U",
        "meta_norad_cat_id": 41328,
        "meta_element_set_no": 999,
        "meta_rev_at_epoch": 7189,
        "meta_bstar": 0,
        "meta_mean_motion_dot": 6e-08,
        "meta_mean_motion_ddot": 0,
        "tle_line1": "1 41328U 16007A   25336.42212451  .00000006  00000+0  00000+0 0  9996",
        "tle_line2": "2 41328  55.4002  97.2666 0091655 243.3201 115.7158  2.00561137 71891"
      },
      "geometry": {
        "type": "Point",
        "coordinates": [
          112.54941086346412,
          21.032716141851385
        ]
      }
    },
    {
      "type": "Feature",
      "properties": {
        "norad_id": 41330,
        "name": "COSMOS 2514 (751)",
        "group": "gnss",
        "lat": -57.60528372738982,
        "lon": -87.2793519221595,
        "alt_km": 19126.011360815657,
        "timestamp": "2025-12-04T10:51:50.348733+00:00",
        "meta_object_name": "COSMOS 2514 (751)",
        "meta_object_id": "2016-008A",
        "meta_epoch": "2025-12-03T14:29:09.873600",
        "meta_mean_motion": 2.1310246,
        "meta_eccentricity": 0.00124497,
        "meta_inclination": 65.139,
        "meta_ra_of_asc_node": 319.717,
        "meta_arg_of_pericenter": 219.8924,
        "meta_mean_anomaly": 140.017,
        "meta_ephemeris_type": 0,
        "meta_classification_type": "U",
        "meta_norad_cat_id": 41330,
        "meta_element_set_no": 999,
        "meta_rev_at_epoch": 7645,
        "meta_bstar": 0,
        "meta_mean_motion_dot": -4.2e-07,
        "meta_mean_motion_ddot": 0,
        "tle_line1": "1 41330U 16008A   25337.60358650 -.00000042  00000+0  00000+0 0  9994",
        "tle_line2": "2 41330  65.1390 319.7170 0012449 219.8924 140.0170  2.13102460 76454"
      },
      "geometry": {
        "type": "Point",
        "coordinates": [
          -87.2793519221595,
          -57.60528372738982
        ]
      }
    }
  ]
}